[
  {
    "name": "STARLINK-31077",
    "noradId": "58637",
    "line1": "1 58637U 23203V   26176.28376362  .00001340  00000+0  58206-4 0  9990",
    "line2": "2 58637  43.0015 179.7065 0001506 276.9783  83.0897 15.27582019141240"
  },
  {
    "name": "STARLINK-31078",
    "noradId": "58638",
    "line1": "1 58638U 23203W   26176.47606582  .00001974  00000+0  81232-4 0  9990",
    "line2": "2 58638  43.0011 178.5700 0001252 288.3416  71.7300 15.27582872140045"
  },
  {
    "name": "STARLINK-31070",
    "noradId": "58639",
    "line1": "1 58639U 23203X   26176.29404461 -.00001856  00000+0 -57934-4 0  9996",
    "line2": "2 58639  43.0000 179.7814 0001794 286.8755  73.1899 15.27573208140012"
  },
  {
    "name": "STARLINK-31090",
    "noradId": "58640",
    "line1": "1 58640U 23203Y   26176.01019241  .00000909  00000+0  42544-4 0  9993",
    "line2": "2 58640  43.0007 173.3094 0001261 272.7646  87.3062 15.27577462140074"
  },
  {
    "name": "STARLINK-31113",
    "noradId": "58668",
    "line1": "1 58668U 23211B   26175.76344381  .00000362  00000+0  22678-4 0  9998",
    "line2": "2 58668  42.9994 200.2830 0001252 274.2044  85.8664 15.27577527138849"
  },
  {
    "name": "STARLINK-31128",
    "noradId": "58669",
    "line1": "1 58669U 23211C   26175.78014915 -.00000459  00000+0 -71583-5 0  9997",
    "line2": "2 58669  43.0017 200.4079 0001043 275.6799  84.3934 15.27574851138846"
  },
  {
    "name": "STARLINK-31083",
    "noradId": "58670",
    "line1": "1 58670U 23211D   26176.47883605  .00000482  00000+0  27037-4 0  9994",
    "line2": "2 58670  42.9993 196.1926 0001200 274.5344  85.5370 15.27586178138954"
  },
  {
    "name": "STARLINK-30828",
    "noradId": "58671",
    "line1": "1 58671U 23211E   26176.50967358  .00001143  00000+0  51031-4 0  9993",
    "line2": "2 58671  43.0017 196.4264 0001052 290.5012  69.5727 15.27581598138956"
  },
  {
    "name": "STARLINK-31104",
    "noradId": "58672",
    "line1": "1 58672U 23211F   26176.30490882  .00068246  00000+0  10413-2 0  9999",
    "line2": "2 58672  42.9904 181.7772 0020829 105.4696 254.8467 15.53312573140380"
  },
  {
    "name": "STARLINK-31131",
    "noradId": "58673",
    "line1": "1 58673U 23211G   26176.48411408  .00001050  00000+0  47690-4 0  9995",
    "line2": "2 58673  43.0033 185.7187 0001892 283.5052  76.5588 15.27586566140359"
  },
  {
    "name": "STARLINK-31124",
    "noradId": "58674",
    "line1": "1 58674U 23211H   26176.48655312 -.00003513  00000+0 -11819-3 0  9991",
    "line2": "2 58674  43.0004 196.2498 0001577 278.7691  81.2982 15.27583072138958"
  },
  {
    "name": "STARLINK-31126",
    "noradId": "58675",
    "line1": "1 58675U 23211J   26175.75188053 -.00000198  00000+0  23161-5 0  9994",
    "line2": "2 58675  42.9997 200.1894 0001175 272.7912  87.2805 15.27578014138845"
  },
  {
    "name": "STARLINK-31066",
    "noradId": "58676",
    "line1": "1 58676U 23211K   26175.87618964 -.00000131  00000+0  47741-5 0  9994",
    "line2": "2 58676  43.0042 345.7281 0000930 246.6021 113.4733 15.27584816138427"
  },
  {
    "name": "STARLINK-31058",
    "noradId": "58677",
    "line1": "1 58677U 23211L   26175.76987112 -.00000130  00000+0  47905-5 0  9998",
    "line2": "2 58677  42.9997 200.3311 0001045 274.2830  85.7902 15.27574497138847"
  },
  {
    "name": "STARLINK-31125",
    "noradId": "58678",
    "line1": "1 58678U 23211M   26176.51224442  .00001227  00000+0  54096-4 0  9998",
    "line2": "2 58678  43.0011 196.4428 0000327 154.6752 205.4116 15.27585687140122"
  },
  {
    "name": "STARLINK-31110",
    "noradId": "58679",
    "line1": "1 58679U 23211N   26175.38140802 -.00000403  00000+0 -51134-5 0  9998",
    "line2": "2 58679  43.0008 202.5751 0001266 276.5242  83.5465 15.27576678138789"
  },
  {
    "name": "STARLINK-31112",
    "noradId": "58680",
    "line1": "1 58680U 23211P   26176.50068174 -.00000193  00000+0  24940-5 0  9996",
    "line2": "2 58680  43.0015 196.3543 0000956 275.3972  84.6770 15.27576690140137"
  },
  {
    "name": "STARLINK-31147",
    "noradId": "58681",
    "line1": "1 58681U 23211Q   26176.51609769  .00003096  00000+0  12194-3 0  9999",
    "line2": "2 58681  43.0053 196.4757 0002390 276.2510  83.8069 15.27597219138959"
  },
  {
    "name": "STARLINK-31144",
    "noradId": "58682",
    "line1": "1 58682U 23211R   26176.47369551  .00000847  00000+0  40289-4 0  9995",
    "line2": "2 58682  42.9993 196.1470 0001222 274.2902  85.7810 15.27582336138955"
  },
  {
    "name": "STARLINK-31095",
    "noradId": "58683",
    "line1": "1 58683U 23211S   26175.54815525  .00000682  00000+0  34314-4 0  9999",
    "line2": "2 58683  43.0015 202.1050 0001454 266.6348  93.4337 15.27581946140073"
  },
  {
    "name": "STARLINK-31107",
    "noradId": "58684",
    "line1": "1 58684U 23211T   26175.55458718  .00000364  00000+0  22739-4 0  9993",
    "line2": "2 58684  42.9997 202.1510 0001002 292.3499  67.7246 15.27575781138805"
  },
  {
    "name": "STARLINK-31121",
    "noradId": "58685",
    "line1": "1 58685U 23211U   26176.47754928  .00000485  00000+0  27153-4 0  9997",
    "line2": "2 58685  43.0002 196.1766 0001343 276.0405  84.0294 15.27581666138954"
  },
  {
    "name": "STARLINK-31137",
    "noradId": "58686",
    "line1": "1 58686U 23211V   26176.51352962  .00029399  00000+0  10728-2 0  9998",
    "line2": "2 58686  43.0009 196.4524 0001416 256.8967 103.1727 15.27604605138950"
  },
  {
    "name": "STARLINK-31106",
    "noradId": "58689",
    "line1": "1 58689U 23211Y   26176.50582554  .00010580  00000+0  39325-3 0  9999",
    "line2": "2 58689  42.9997 196.3948 0000366 166.9361 193.1500 15.27593889138957"
  },
  {
    "name": "STARLINK-11072 [DTC]",
    "noradId": "58705",
    "line1": "1 58705U 24002A   26176.52163748  .00000763  00000+0  11151-4 0  9999",
    "line2": "2 58705  53.1582 102.4439 0000827 100.5964 259.5147 15.69708203143378"
  },
  {
    "name": "STARLINK-11075 [DTC]",
    "noradId": "58706",
    "line1": "1 58706U 24002B   26176.04161577  .00000258  00000+0  69837-5 0  9999",
    "line2": "2 58706  53.1593 104.4222 0000885  97.0813 263.0306 15.69711363143301"
  },
  {
    "name": "STARLINK-11077 [DTC]",
    "noradId": "58707",
    "line1": "1 58707U 24002C   26176.02208909  .00001032  00000+0  13369-4 0  9998",
    "line2": "2 58707  53.1585 105.0056 0000690  98.9967 261.1129 15.69712953143295"
  },
  {
    "name": "STARLINK-11079 [DTC]",
    "noradId": "58708",
    "line1": "1 58708U 24002D   26176.51673295  .00000160  00000+0  61760-5 0  9997",
    "line2": "2 58708  53.1589 102.4070 0000925  91.7887 268.3237 15.69708516143378"
  },
  {
    "name": "STARLINK-11076 [DTC]",
    "noradId": "58709",
    "line1": "1 58709U 24002E   26176.51182912  .00000309  00000+0  74047-5 0  9996",
    "line2": "2 58709  53.1589 102.3810 0000807  92.7126 267.3984 15.69708027143371"
  },
  {
    "name": "STARLINK-11078 [DTC]",
    "noradId": "58710",
    "line1": "1 58710U 24002F   26176.06123847  .00000206  00000+0  65609-5 0  9990",
    "line2": "2 58710  53.1585 104.5458 0000994  75.2568 284.8560 15.69705511143306"
  }
]