OBJECT_NAME,OBJECT_ID,EPOCH,MEAN_MOTION,ECCENTRICITY,INCLINATION,RA_OF_ASC_NODE,ARG_OF_PERICENTER,MEAN_ANOMALY,EPHEMERIS_TYPE,CLASSIFICATION_TYPE,NORAD_CAT_ID,ELEMENT_SET_NO,REV_AT_EPOCH,BSTAR,MEAN_MOTION_DOT,MEAN_MOTION_DDOT
STARLINK-31077,2023-203V,2026-06-25T06:48:37.176768,15.27582019,.00015061,43.0015,179.7065,276.9783,83.0897,0,U,58637,999,14124,.58205719E-4,.134E-4,0
STARLINK-31078,2023-203W,2026-06-25T11:25:32.086848,15.27582872,.00012522,43.0011,178.5700,288.3416,71.7300,0,U,58638,999,14004,.81231765E-4,.1974E-4,0
STARLINK-31070,2023-203X,2026-06-25T07:03:25.454304,15.27573208,.00017949,43.0000,179.7814,286.8755,73.1899,0,U,58639,999,14001,-.57933535E-4,-.1856E-4,0
STARLINK-31090,2023-203Y,2026-06-25T00:14:40.624224,15.27577462,.00012614,43.0007,173.3094,272.7646,87.3062,0,U,58640,999,14007,.42544072E-4,.909E-5,0
STARLINK-31113,2023-211B,2026-06-24T18:19:21.545184,15.27577527,.00012528,42.9994,200.2830,274.2044,85.8664,0,U,58668,999,13884,.22677543E-4,.362E-5,0
STARLINK-31128,2023-211C,2026-06-24T18:43:24.886560,15.27574851,.00010439,43.0017,200.4079,275.6799,84.3934,0,U,58669,999,13884,-.715833E-5,-.459E-5,0
STARLINK-31083,2023-211D,2026-06-25T11:29:31.434720,15.27586178,.00012001,42.9993,196.1926,274.5344,85.5370,0,U,58670,999,13895,.2703736E-4,.482E-5,0
STARLINK-30828,2023-211E,2026-06-25T12:13:55.797312,15.27581598,.00010529,43.0017,196.4264,290.5012,69.5727,0,U,58671,999,13895,.51030803E-4,.1143E-4,0
STARLINK-31104,2023-211F,2026-06-25T07:19:04.122048,15.53312573,.00208291,42.9904,181.7772,105.4696,254.8467,0,U,58672,999,14038,.10413279E-2,.68246E-3,0
STARLINK-31131,2023-211G,2026-06-25T11:37:07.456512,15.27586566,.00018924,43.0033,185.7187,283.5052,76.5588,0,U,58673,999,14035,.47689565E-4,.105E-4,0
STARLINK-31124,2023-211H,2026-06-25T11:40:38.189568,15.27583072,.00015774,43.0004,196.2498,278.7691,81.2982,0,U,58674,999,13895,-.11819336E-3,-.3513E-4,0
STARLINK-31126,2023-211J,2026-06-24T18:02:42.477792,15.27578014,.00011754,42.9997,200.1894,272.7912,87.2805,0,U,58675,999,13884,.2316146E-5,-.198E-5,0
STARLINK-31066,2023-211K,2026-06-24T21:01:42.784896,15.27584816,.00009307,43.0042,345.7281,246.6021,113.4733,0,U,58676,999,13842,.4774122E-5,-.131E-5,0
STARLINK-31058,2023-211L,2026-06-24T18:28:36.864768,15.27574497,.0001045,42.9997,200.3311,274.2830,85.7902,0,U,58677,999,13884,.4790517E-5,-.13E-5,0
STARLINK-31125,2023-211M,2026-06-25T12:17:37.917888,15.27585687,.00003276,43.0011,196.4428,154.6752,205.4116,0,U,58678,999,14012,.54096178E-4,.1227E-4,0
STARLINK-31110,2023-211N,2026-06-24T09:09:13.652928,15.27576678,.0001266,43.0008,202.5751,276.5242,83.5465,0,U,58679,999,13878,-.5113379E-5,-.403E-5,0
STARLINK-31112,2023-211P,2026-06-25T12:00:58.902336,15.27576690,.00009562,43.0015,196.3543,275.3972,84.6770,0,U,58680,999,14013,.2493998E-5,-.193E-5,0
STARLINK-31147,2023-211Q,2026-06-25T12:23:10.840416,15.27597219,.00023904,43.0053,196.4757,276.2510,83.8069,0,U,58681,999,13895,.12193681E-3,.3096E-4,0
STARLINK-31144,2023-211R,2026-06-25T11:22:07.292064,15.27582336,.00012223,42.9993,196.1470,274.2902,85.7810,0,U,58682,999,13895,.4028855E-4,.847E-5,0
STARLINK-31095,2023-211S,2026-06-24T13:09:20.613600,15.27581946,.00014542,43.0015,202.1050,266.6348,93.4337,0,U,58683,999,14007,.34313842E-4,.682E-5,0
STARLINK-31107,2023-211T,2026-06-24T13:18:36.332352,15.27575781,.00010028,42.9997,202.1510,292.3499,67.7246,0,U,58684,999,13880,.22738624E-4,.364E-5,0
STARLINK-31121,2023-211U,2026-06-25T11:27:40.257792,15.27581666,.00013431,43.0002,196.1766,276.0405,84.0294,0,U,58685,999,13895,.27152785E-4,.485E-5,0
STARLINK-31137,2023-211V,2026-06-25T12:19:28.959168,15.27604605,.00014166,43.0009,196.4524,256.8967,103.1727,0,U,58686,999,13895,.10728179E-2,.29399E-3,0
STARLINK-31106,2023-211Y,2026-06-25T12:08:23.326656,15.27593889,.00003663,42.9997,196.3948,166.9361,193.1500,0,U,58689,999,13895,.39325023E-3,.1058E-3,0
STARLINK-11072 [DTC],2024-002A,2026-06-25T12:31:09.478272,15.69708203,.00008277,53.1582,102.4439,100.5964,259.5147,0,U,58705,999,14337,.11150822E-4,.763E-5,0
STARLINK-11075 [DTC],2024-002B,2026-06-25T00:59:55.602528,15.69711363,.00008858,53.1593,104.4222,97.0813,263.0306,0,U,58706,999,14330,.6983742E-5,.258E-5,0
STARLINK-11077 [DTC],2024-002C,2026-06-25T00:31:48.497376,15.69712953,.00006908,53.1585,105.0056,98.9967,261.1129,0,U,58707,999,14329,.13368743E-4,.1032E-4,0
STARLINK-11079 [DTC],2024-002D,2026-06-25T12:24:05.726880,15.69708516,.00009258,53.1589,102.4070,91.7887,268.3237,0,U,58708,999,14337,.617603E-5,.16E-5,0
STARLINK-11076 [DTC],2024-002E,2026-06-25T12:17:02.035968,15.69708027,.00008076,53.1589,102.3810,92.7126,267.3984,0,U,58709,999,14337,.7404745E-5,.309E-5,0
STARLINK-11078 [DTC],2024-002F,2026-06-25T01:28:11.003808,15.69705511,.00009944,53.1585,104.5458,75.2568,284.8560,0,U,58710,999,14330,.656093E-5,.206E-5,0
